*******************************************************************************
JPL/HORIZONS               4004 List'ev (1971 SN1)         2023-Sep-04 11:26:45
Rec #:    4004 (+COV) Soln.date: 2023-Aug-23_15:20:34   # obs: 3971 (1960-2023)
 
IAU76/J2000 helio. ecliptic osc. elements (au, days, deg., period=Julian yrs):
 
  EPOCH=  2458030.5 ! 2017-Oct-04.00 (TDB)         Residual RMS= .23359
   EC= .2020487101334201   QR= 2.474556026866255   TP= 2457118.5902109733
   OM= 18.74602203261806   W=  347.3492993794778   IN= 15.71362109371427
   A= 3.10113669630136     MA= 164.5790633961327   ADIST= 3.727717365736466
   PER= 5.46122            N= .180477351           ANGMOM= .029668195
   DAN= 2.4847             DDN= 3.70494            L= 6.5537062
   B= -3.4004057           MOID= 1.47578001        TP= 2015-Apr-06.0902109733
 
Asteroid physical parameters (km, seconds, rotational period in hours):
   GM= n.a.                RAD= 12.381             ROTPER= 17.9394
   H= 12.16                G= .150                 B-V= n.a.
                           ALBEDO= .050            STYP= n.a.

ASTEROID comments: 
1: soln ref.= JPL#55, OCC=0
2: source=ORB
*******************************************************************************


*******************************************************************************
Ephemeris / API_USER Mon Sep  4 11:26:45 2023 Pasadena, USA      / Horizons
*******************************************************************************
Target body name: 4004 List'ev (1971 SN1)         {source: JPL#55}
Center body name: Solar System Barycenter (0)     {source: DE441}
Center-site name: BODY CENTER
*******************************************************************************
Start time      : A.D. 2023-Aug-12 00:00:00.0000 TDB
Stop  time      : A.D. 2023-Aug-13 00:00:00.0000 TDB
Step-size       : 2880 minutes
*******************************************************************************
Center geodetic : 0.0, 0.0, 0.0                   {E-lon(deg),Lat(deg),Alt(km)}
Center cylindric: 0.0, 0.0, 0.0                   {E-lon(deg),Dxy(km),Dz(km)}
Center radii    : (undefined)
Small perturbers: Yes                             {source: SB441-N16}
Output units    : KM-S
Calendar mode   : Mixed Julian/Gregorian
Output type     : GEOMETRIC cartesian states
Output format   : 2 (position and velocity)
Reference frame : Ecliptic of J2000.0
*******************************************************************************
Initial IAU76/J2000 heliocentric ecliptic osculating elements (au, days, deg.):
  EPOCH=  2458030.5 ! 2017-Oct-04.00 (TDB)         Residual RMS= .23359        
   EC= .2020487101334201   QR= 2.474556026866255   TP= 2457118.5902109733      
   OM= 18.74602203261806   W=  347.3492993794778   IN= 15.71362109371427       
  Equivalent ICRF heliocentric cartesian coordinates (au, au/d):
   X=-3.683644030954631E+00  Y= 5.603106041210631E-02  Z= 4.547666238397186E-01
  VX=-1.063390805877160E-03 VY=-6.275462894050207E-03 VZ=-4.847810090907334E-03
Asteroid physical parameters (km, seconds, rotational period in hours):        
   GM= n.a.                RAD= 12.381             ROTPER= 17.9394             
   H= 12.16                G= .150                 B-V= n.a.                   
                           ALBEDO= .050            STYP= n.a.                  
*******************************************************************************
JDTDB
   X     Y     Z
   VX    VY    VZ
*******************************************************************************
$$SOE
2460168.500000000 = A.D. 2023-Aug-12 00:00:00.0000 TDB 
 X =-5.430327523284284E+08 Y =-1.240587602261165E+08 Z = 1.537245590634730E+07
 VX= 3.234969570848599E+00 VY=-1.295963365985963E+01 VZ=-3.727408736461843E+00
$$EOE
*******************************************************************************
 
TIME

  Barycentric Dynamical Time ("TDB" or T_eph) output was requested. This
continuous coordinate time is equivalent to the relativistic proper time
of a clock at rest in a reference frame co-moving with the solar system
barycenter but outside the system's gravity well. It is the independent
variable in the solar system relativistic equations of motion.

  TDB runs at a uniform rate of one SI second per second and is independent
of irregularities in Earth's rotation.
 
CALENDAR SYSTEM

  Mixed calendar mode was active such that calendar dates after AD 1582-Oct-15
(if any) are in the modern Gregorian system. Dates prior to 1582-Oct-5 (if any)
are in the Julian calendar system, which is automatically extended for dates
prior to its adoption on 45-Jan-1 BC.  The Julian calendar is useful for
matching historical dates. The Gregorian calendar more accurately corresponds
to the Earth's orbital motion and seasons. A "Gregorian-only" calendar mode is
available if such physical events are the primary interest.

REFERENCE FRAME AND COORDINATES

  Ecliptic at the standard reference epoch

    Reference epoch: J2000.0
    X-Y plane: adopted Earth orbital plane at the reference epoch
               Note: IAU76 obliquity of 84381.448 arcseconds wrt ICRF X-Y plane
    X-axis   : ICRF
    Z-axis   : perpendicular to the X-Y plane in the directional (+ or -) sense
               of Earth's north pole at the reference epoch.

  Symbol meaning:

    JDTDB    Julian Day Number, Barycentric Dynamical Time
      X      X-component of position vector (km)
      Y      Y-component of position vector (km)
      Z      Z-component of position vector (km)
      VX     X-component of velocity vector (km/sec)                           
      VY     Y-component of velocity vector (km/sec)                           
      VZ     Z-component of velocity vector (km/sec)                           

ABERRATIONS AND CORRECTIONS

 Geometric state vectors have NO corrections or aberrations applied.

Computations by ...

    Solar System Dynamics Group, Horizons On-Line Ephemeris System
    4800 Oak Grove Drive, Jet Propulsion Laboratory
    Pasadena, CA  91109   USA

    General site: https://ssd.jpl.nasa.gov/
    Mailing list: https://ssd.jpl.nasa.gov/email_list.html
    System news : https://ssd.jpl.nasa.gov/horizons/news.html
    User Guide  : https://ssd.jpl.nasa.gov/horizons/manual.html
    Connect     : browser        https://ssd.jpl.nasa.gov/horizons/app.html#/x
                  API            https://ssd-api.jpl.nasa.gov/doc/horizons.html
                  command-line   telnet ssd.jpl.nasa.gov 6775
                  e-mail/batch   https://ssd.jpl.nasa.gov/ftp/ssd/hrzn_batch.txt
                  scripts        https://ssd.jpl.nasa.gov/ftp/ssd/SCRIPTS
    Author      : Jon.D.Giorgini@jpl.nasa.gov
*******************************************************************************
